{
    "links": {
        "self": "http://www.neowsapp.com/rest/v1/neo/3702967?api_key=iIulBulltgU6a56xZRHN4H3l9WmuAYTsLGpBGhQ2"
    },
    "id": "3702967",
    "neo_reference_id": "3702967",
    "name": "(2014 YU9)",
    "designation": "2014 YU9",
    "nasa_jpl_url": "http://ssd.jpl.nasa.gov/sbdb.cgi?sstr=3702967",
    "absolute_magnitude_h": 24.8,
    "estimated_diameter": {
        "kilometers": {
            "estimated_diameter_min": 0.0291443905,
            "estimated_diameter_max": 0.0651688382
        },
        "meters": {
            "estimated_diameter_min": 29.1443904535,
            "estimated_diameter_max": 65.1688382168
        },
        "miles": {
            "estimated_diameter_min": 0.018109479,
            "estimated_diameter_max": 0.0404940262
        },
        "feet": {
            "estimated_diameter_min": 95.6180819754,
            "estimated_diameter_max": 213.8085311752
        }
    },
    "is_potentially_hazardous_asteroid": false,
    "close_approach_data": [
        {
            "close_approach_date": "1940-06-10",
            "close_approach_date_full": "1940-Jun-10 00:02",
            "epoch_date_close_approach": -932860680000,
            "relative_velocity": {
                "kilometers_per_second": "23.2860286576",
                "kilometers_per_hour": "83829.7031673287",
                "miles_per_hour": "52088.517504166"
            },
            "miss_distance": {
                "astronomical": "0.0997847824",
                "lunar": "38.8162803536",
                "kilometers": "14927590.905453488",
                "miles": "9275574.8745266144"
            },
            "orbiting_body": "Earth"
        },
        {
            "close_approach_date": "1940-06-28",
            "close_approach_date_full": "1940-Jun-28 16:16",
            "epoch_date_close_approach": -931247040000,
            "relative_velocity": {
                "kilometers_per_second": "24.7692705557",
                "kilometers_per_hour": "89169.3740006233",
                "miles_per_hour": "55406.3813061095"
            },
            "miss_distance": {
                "astronomical": "0.0835951965",
                "lunar": "32.5185314385",
                "kilometers": "12505663.338631455",
                "miles": "7770658.868385879"
            },
            "orbiting_body": "Venus"
        },
        {
            "close_approach_date": "2014-12-18",
            "close_approach_date_full": "2014-Dec-18 22:15",
            "epoch_date_close_approach": 1418940900000,
            "relative_velocity": {
                "kilometers_per_second": "22.8830921661",
                "kilometers_per_hour": "82379.1317980561",
                "miles_per_hour": "51187.1888664088"
            },
            "miss_distance": {
                "astronomical": "0.0331958733",
                "lunar": "12.9131947137",
                "kilometers": "4966031.938469871",
                "miles": "3085749.1584753798"
            },
            "orbiting_body": "Earth"
        },
        {
            "close_approach_date": "2112-05-25",
            "close_approach_date_full": "2112-May-25 09:51",
            "epoch_date_close_approach": 4493613060000,
            "relative_velocity": {
                "kilometers_per_second": "31.5920740237",
                "kilometers_per_hour": "113731.4664853168",
                "miles_per_hour": "70668.3103836125"
            },
            "miss_distance": {
                "astronomical": "0.3383406454",
                "lunar": "131.6145110606",
                "kilometers": "50615039.886265298",
                "miles": "31450727.3957171924"
            },
            "orbiting_body": "Earth"
        }
    ],
    "orbital_data": {
        "orbit_id": "6",
        "orbit_determination_date": "2017-04-06 08:36:45",
        "first_observation_date": "2014-12-23",
        "last_observation_date": "2014-12-30",
        "data_arc_in_days": 7,
        "observations_used": 23,
        "orbit_uncertainty": "9",
        "minimum_orbit_intersection": ".0331773",
        "jupiter_tisserand_invariant": "4.109",
        "epoch_osculation": "2457015.5",
        "eccentricity": ".6292426170386385",
        "semi_major_axis": "1.562919068530061",
        "inclination": "23.81495477036325",
        "ascending_node_longitude": "90.50219856128184",
        "orbital_period": "713.6794006705207",
        "perihelion_distance": ".5794637836286143",
        "perihelion_argument": "260.733621047842",
        "aphelion_distance": "2.546374353431508",
        "perihelion_time": "2456959.759172902380",
        "mean_anomaly": "28.1172438720944",
        "mean_motion": ".5044281783413819",
        "equinox": "J2000",
        "orbit_class": {
            "orbit_class_type": "APO",
            "orbit_class_description": "Near-Earth asteroid orbits which cross the Earth’s orbit similar to that of 1862 Apollo",
            "orbit_class_range": "a (semi-major axis) > 1.0 AU; q (perihelion) < 1.017 AU"
        }
    },
    "is_sentry_object": false
}